{
  "type": "FeatureCollection",
  "features": [
    {
      "type": "Feature",
      "properties": {
        "norad_id": 66711,
        "name": "FLOCK 4H-8",
        "group": "last-30-days",
        "lat": 82.36165030775504,
        "lon": -30.77084493598688,
        "alt_km": 507.2985202404161,
        "timestamp": "2025-12-26T14:28:46.395121+00:00",
        "meta_object_name": "FLOCK 4H-8",
        "meta_object_id": "2025-276AX",
        "meta_epoch": "2025-12-26T06:00:02.999808",
        "meta_mean_motion": 15.17549648,
        "meta_eccentricity": 0.00023161,
        "meta_inclination": 97.4424,
        "meta_ra_of_asc_node": 71.79,
        "meta_arg_of_pericenter": 250.1323,
        "meta_mean_anomaly": 72.7829,
        "meta_ephemeris_type": 0,
        "meta_classification_type": "U",
        "meta_norad_cat_id": 66711,
        "meta_element_set_no": 999,
        "meta_rev_at_epoch": 217,
        "meta_bstar": -0.0010376616,
        "meta_mean_motion_dot": -0.00020819,
        "meta_mean_motion_ddot": 0,
        "tle_line1": "1 66711U 25276AX  25360.25003472 -.00020819  00000+0 -10377-2 0  9993",
        "tle_line2": "2 66711  97.4424  71.7900 0002316 250.1323  72.7829 15.17549648  2170"
      },
      "geometry": {
        "type": "Point",
        "coordinates": [
          -30.77084493598688,
          82.36165030775504
        ]
      }
    },
    {
      "type": "Feature",
      "properties": {
        "norad_id": 66712,
        "name": "FLOCK 4H-9",
        "group": "last-30-days",
        "lat": 41.57005008490762,
        "lon": -101.18915489963848,
        "alt_km": 507.76066863895903,
        "timestamp": "2025-12-26T14:28:46.395133+00:00",
        "meta_object_name": "FLOCK 4H-9",
        "meta_object_id": "2025-276AY",
        "meta_epoch": "2025-12-26T05:57:48.481920",
        "meta_mean_motion": 15.17960263,
        "meta_eccentricity": 0.00029435,
        "meta_inclination": 97.4416,
        "meta_ra_of_asc_node": 71.805,
        "meta_arg_of_pericenter": 201.2638,
        "meta_mean_anomaly": 158.8474,
        "meta_ephemeris_type": 0,
        "meta_classification_type": "U",
        "meta_norad_cat_id": 66712,
        "meta_element_set_no": 999,
        "meta_rev_at_epoch": 417,
        "meta_bstar": 0.00033386691,
        "meta_mean_motion_dot": 6.715e-05,
        "meta_mean_motion_ddot": 0,
        "tle_line1": "1 66712U 25276AY  25360.24847780  .00006715  00000+0  33387-3 0  9995",
        "tle_line2": "2 66712  97.4416  71.8050 0002943 201.2638 158.8474 15.17960263  4175"
      },
      "geometry": {
        "type": "Point",
        "coordinates": [
          -101.18915489963848,
          41.57005008490762
        ]
      }
    },
    {
      "type": "Feature",
      "properties": {
        "norad_id": 66713,
        "name": "FLOCK 4H-10",
        "group": "last-30-days",
        "lat": 69.9757619253085,
        "lon": 51.10320618592793,
        "alt_km": 509.4766585736588,
        "timestamp": "2025-12-26T14:28:46.395146+00:00",
        "meta_object_name": "FLOCK 4H-10",
        "meta_object_id": "2025-276AZ",
        "meta_epoch": "2025-12-26T03:05:12.564960",
        "meta_mean_motion": 15.17318474,
        "meta_eccentricity": 0.00034842,
        "meta_inclination": 97.4389,
        "meta_ra_of_asc_node": 71.6458,
        "meta_arg_of_pericenter": 236.8942,
        "meta_mean_anomaly": 123.1958,
        "meta_ephemeris_type": 0,
        "meta_classification_type": "U",
        "meta_norad_cat_id": 66713,
        "meta_element_set_no": 999,
        "meta_rev_at_epoch": 415,
        "meta_bstar": 0.00035826706,
        "meta_mean_motion_dot": 7.08e-05,
        "meta_mean_motion_ddot": 0,
        "tle_line1": "1 66713U 25276AZ  25360.12861765  .00007080  00000+0  35827-3 0  9999",
        "tle_line2": "2 66713  97.4389  71.6458 0003484 236.8942 123.1958 15.17318474  4159"
      },
      "geometry": {
        "type": "Point",
        "coordinates": [
          51.10320618592793,
          69.9757619253085
        ]
      }
    },
    {
      "type": "Feature",
      "properties": {
        "norad_id": 66714,
        "name": "FLOCK 4H-11",
        "group": "last-30-days",
        "lat": 71.27002730759816,
        "lon": -85.1893238811377,
        "alt_km": 506.5695856863167,
        "timestamp": "2025-12-26T14:28:46.395169+00:00",
        "meta_object_name": "FLOCK 4H-11",
        "meta_object_id": "2025-276BA",
        "meta_epoch": "2025-12-26T06:05:52.664928",
        "meta_mean_motion": 15.17869916,
        "meta_eccentricity": 0.00020192,
        "meta_inclination": 97.4408,
        "meta_ra_of_asc_node": 71.7957,
        "meta_arg_of_pericenter": 255.8995,
        "meta_mean_anomaly": 104.2015,
        "meta_ephemeris_type": 0,
        "meta_classification_type": "U",
        "meta_norad_cat_id": 66714,
        "meta_element_set_no": 999,
        "meta_rev_at_epoch": 417,
        "meta_bstar": 0.00055553302,
        "meta_mean_motion_dot": 0.00011195,
        "meta_mean_motion_ddot": 0,
        "tle_line1": "1 66714U 25276BA  25360.25408177  .00011195  00000+0  55553-3 0  9998",
        "tle_line2": "2 66714  97.4408  71.7957 0002019 255.8995 104.2015 15.17869916  4177"
      },
      "geometry": {
        "type": "Point",
        "coordinates": [
          -85.1893238811377,
          71.27002730759816
        ]
      }
    },
    {
      "type": "Feature",
      "properties": {
        "norad_id": 66715,
        "name": "FLOCK 4H-12",
        "group": "last-30-days",
        "lat": 28.109788396387092,
        "lon": -103.85795272957012,
        "alt_km": 508.9360474627174,
        "timestamp": "2025-12-26T14:28:46.395180+00:00",
        "meta_object_name": "FLOCK 4H-12",
        "meta_object_id": "2025-276BB",
        "meta_epoch": "2025-12-26T05:54:16.858944",
        "meta_mean_motion": 15.18118034,
        "meta_eccentricity": 0.00022176,
        "meta_inclination": 97.4383,
        "meta_ra_of_asc_node": 71.789,
        "meta_arg_of_pericenter": 173.7567,
        "meta_mean_anomaly": 186.3695,
        "meta_ephemeris_type": 0,
        "meta_classification_type": "U",
        "meta_norad_cat_id": 66715,
        "meta_element_set_no": 999,
        "meta_rev_at_epoch": 448,
        "meta_bstar": 0.00044626009,
        "meta_mean_motion_dot": 9.042e-05,
        "meta_mean_motion_ddot": 0,
        "tle_line1": "1 66715U 25276BB  25360.24602846  .00009042  00000+0  44626-3 0  9994",
        "tle_line2": "2 66715  97.4383  71.7890 0002217 173.7567 186.3695 15.18118034  4487"
      },
      "geometry": {
        "type": "Point",
        "coordinates": [
          -103.85795272957012,
          28.109788396387092
        ]
      }
    },
    {
      "type": "Feature",
      "properties": {
        "norad_id": 66716,
        "name": "FLOCK 4H-13",
        "group": "last-30-days",
        "lat": 15.306368130517226,
        "lon": -105.78709830815004,
        "alt_km": 510.8517822497233,
        "timestamp": "2025-12-26T14:28:46.395191+00:00",
        "meta_object_name": "FLOCK 4H-13",
        "meta_object_id": "2025-276BC",
        "meta_epoch": "2025-12-26T00:00:02.000160",
        "meta_mean_motion": 15.18218609,
        "meta_eccentricity": 0.00019025,
        "meta_inclination": 97.4419,
        "meta_ra_of_asc_node": 71.5693,
        "meta_arg_of_pericenter": 138.07,
        "meta_mean_anomaly": 331.0846,
        "meta_ephemeris_type": 0,
        "meta_classification_type": "U",
        "meta_norad_cat_id": 66716,
        "meta_element_set_no": 999,
        "meta_rev_at_epoch": 258,
        "meta_bstar": 0.0014351767,
        "meta_mean_motion_dot": 0.00029392,
        "meta_mean_motion_ddot": 0,
        "tle_line1": "1 66716U 25276BC  25360.00002315  .00029392  00000+0  14352-2 0  9996",
        "tle_line2": "2 66716  97.4419  71.5693 0001902 138.0700 331.0846 15.18218609  2585"
      },
      "geometry": {
        "type": "Point",
        "coordinates": [
          -105.78709830815004,
          15.306368130517226
        ]
      }
    },
    {
      "type": "Feature",
      "properties": {
        "norad_id": 66717,
        "name": "FLOCK 4H-14",
        "group": "last-30-days",
        "lat": 2.501270362749978,
        "lon": -107.51002440121465,
        "alt_km": 512.6394312261355,
        "timestamp": "2025-12-26T14:28:46.395201+00:00",
        "meta_object_name": "FLOCK 4H-14",
        "meta_object_id": "2025-276BD",
        "meta_epoch": "2025-12-26T05:47:34.455264",
        "meta_mean_motion": 15.18390258,
        "meta_eccentricity": 0.00017647,
        "meta_inclination": 97.4408,
        "meta_ra_of_asc_node": 71.8068,
        "meta_arg_of_pericenter": 130.0825,
        "meta_mean_anomaly": 230.0564,
        "meta_ephemeris_type": 0,
        "meta_classification_type": "U",
        "meta_norad_cat_id": 66717,
        "meta_element_set_no": 999,
        "meta_rev_at_epoch": 342,
        "meta_bstar": 0.00032856849,
        "meta_mean_motion_dot": 6.69e-05,
        "meta_mean_motion_ddot": 0,
        "tle_line1": "1 66717U 25276BD  25360.24137101  .00006690  00000+0  32857-3 0  9992",
        "tle_line2": "2 66717  97.4408  71.8068 0001764 130.0825 230.0564 15.18390258  3429"
      },
      "geometry": {
        "type": "Point",
        "coordinates": [
          -107.51002440121465,
          2.501270362749978
        ]
      }
    }
  ]
}